{
    "links": {
        "self": "http://www.neowsapp.com/rest/v1/neo/3603600?api_key=iIulBulltgU6a56xZRHN4H3l9WmuAYTsLGpBGhQ2"
    },
    "id": "3603600",
    "neo_reference_id": "3603600",
    "name": "(2012 JQ)",
    "designation": "2012 JQ",
    "nasa_jpl_url": "http://ssd.jpl.nasa.gov/sbdb.cgi?sstr=3603600",
    "absolute_magnitude_h": 23.2,
    "estimated_diameter": {
        "kilometers": {
            "estimated_diameter_min": 0.0608912622,
            "estimated_diameter_max": 0.1361570015
        },
        "meters": {
            "estimated_diameter_min": 60.8912622106,
            "estimated_diameter_max": 136.1570015386
        },
        "miles": {
            "estimated_diameter_min": 0.0378360645,
            "estimated_diameter_max": 0.0846040122
        },
        "feet": {
            "estimated_diameter_min": 199.7744887109,
            "estimated_diameter_max": 446.7093369279
        }
    },
    "is_potentially_hazardous_asteroid": false,
    "close_approach_data": [
        {
            "close_approach_date": "2012-05-03",
            "close_approach_date_full": "2012-May-03 11:13",
            "epoch_date_close_approach": 1336043580000,
            "relative_velocity": {
                "kilometers_per_second": "9.4448161423",
                "kilometers_per_hour": "34001.338112317",
                "miles_per_hour": "21127.1092287338"
            },
            "miss_distance": {
                "astronomical": "0.0738734879",
                "lunar": "28.7367867931",
                "kilometers": "11051316.439310773",
                "miles": "6866969.6097757474"
            },
            "orbiting_body": "Earth"
        }
    ],
    "orbital_data": {
        "orbit_id": "14",
        "orbit_determination_date": "2017-04-06 08:49:52",
        "first_observation_date": "2012-05-10",
        "last_observation_date": "2012-05-28",
        "data_arc_in_days": 18,
        "observations_used": 84,
        "orbit_uncertainty": "7",
        "minimum_orbit_intersection": ".0385376",
        "jupiter_tisserand_invariant": "3.403",
        "epoch_osculation": "2459000.5",
        "eccentricity": ".5469740094430917",
        "semi_major_axis": "2.255658479101159",
        "inclination": "5.857825509830628",
        "ascending_node_longitude": "44.27208245461217",
        "orbital_period": "1237.395251044005",
        "perihelion_distance": "1.021871916852892",
        "perihelion_argument": "151.0964014944204",
        "aphelion_distance": "3.489445041349426",
        "perihelion_time": "2458505.587071738780",
        "mean_anomaly": "143.986857896631",
        "mean_motion": ".2909337171742526",
        "equinox": "J2000",
        "orbit_class": {
            "orbit_class_type": "AMO",
            "orbit_class_description": "Near-Earth asteroid orbits similar to that of 1221 Amor",
            "orbit_class_range": "1.017 AU < q (perihelion) < 1.3 AU"
        }
    },
    "is_sentry_object": false
}